[{"OBJECT_NAME":"STARLINK-33905","OBJECT_ID":"2025-094T","EPOCH":"2026-03-09T20:49:25.333248","MEAN_MOTION":14.9834662,"ECCENTRICITY":0.00034,"INCLINATION":70.0019,"RA_OF_ASC_NODE":233.8551,"ARG_OF_PERICENTER":269.1788,"MEAN_ANOMALY":90.8982,"EPHEMERIS_TYPE":0,"CLASSIFICATION_TYPE":"U","NORAD_CAT_ID":63881,"ELEMENT_SET_NO":999,"REV_AT_EPOCH":4723,"BSTAR":0.00093421149,"MEAN_MOTION_DOT":0.00011077,"MEAN_MOTION_DDOT":0},{"OBJECT_NAME":"COSMOS 252 DEB","OBJECT_ID":"1968-097M","EPOCH":"2026-03-09T21:05:06.660384","MEAN_MOTION":14.13882086,"ECCENTRICITY":0.04456891,"INCLINATION":62.2949,"RA_OF_ASC_NODE":295.7795,"ARG_OF_PERICENTER":231.9059,"MEAN_ANOMALY":124.1012,"EPHEMERIS_TYPE":0,"CLASSIFICATION_TYPE":"U","NORAD_CAT_ID":3559,"ELEMENT_SET_NO":999,"REV_AT_EPOCH":82984,"BSTAR":0.00064426371,"MEAN_MOTION_DOT":3.06e-5,"MEAN_MOTION_DDOT":0}]
